{
    "links": {
        "self": "http://www.neowsapp.com/rest/v1/neo/3802424?api_key=iIulBulltgU6a56xZRHN4H3l9WmuAYTsLGpBGhQ2"
    },
    "id": "3802424",
    "neo_reference_id": "3802424",
    "name": "(2018 GM1)",
    "designation": "2018 GM1",
    "nasa_jpl_url": "http://ssd.jpl.nasa.gov/sbdb.cgi?sstr=3802424",
    "absolute_magnitude_h": 24.7,
    "estimated_diameter": {
        "kilometers": {
            "estimated_diameter_min": 0.0305179233,
            "estimated_diameter_max": 0.0682401509
        },
        "meters": {
            "estimated_diameter_min": 30.5179232594,
            "estimated_diameter_max": 68.2401509401
        },
        "miles": {
            "estimated_diameter_min": 0.0189629525,
            "estimated_diameter_max": 0.0424024508
        },
        "feet": {
            "estimated_diameter_min": 100.1244233463,
            "estimated_diameter_max": 223.8850168104
        }
    },
    "is_potentially_hazardous_asteroid": false,
    "close_approach_data": [
        {
            "close_approach_date": "2018-04-02",
            "close_approach_date_full": "2018-Apr-02 06:01",
            "epoch_date_close_approach": 1522648860000,
            "relative_velocity": {
                "kilometers_per_second": "19.1080513007",
                "kilometers_per_hour": "68788.9846825286",
                "miles_per_hour": "42742.7999545412"
            },
            "miss_distance": {
                "astronomical": "0.0471710654",
                "lunar": "18.3495444406",
                "kilometers": "7056690.909470698",
                "miles": "4384824.4041357124"
            },
            "orbiting_body": "Earth"
        }
    ],
    "orbital_data": {
        "orbit_id": "2",
        "orbit_determination_date": "2018-05-13 06:25:06",
        "first_observation_date": "2018-04-09",
        "last_observation_date": "2018-04-21",
        "data_arc_in_days": 12,
        "observations_used": 27,
        "orbit_uncertainty": "9",
        "minimum_orbit_intersection": ".0433345",
        "jupiter_tisserand_invariant": "3.732",
        "epoch_osculation": "2458219.5",
        "eccentricity": ".6555301156393891",
        "semi_major_axis": "1.834953502459135",
        "inclination": "2.570465106845013",
        "ascending_node_longitude": "115.8096126742211",
        "orbital_period": "907.8958323419704",
        "perihelion_distance": ".6320862207991962",
        "perihelion_argument": "349.5563414416412",
        "aphelion_distance": "3.037820784119074",
        "perihelion_time": "2458162.976958084844",
        "mean_anomaly": "22.41258783727043",
        "mean_motion": ".3965212606729991",
        "equinox": "J2000",
        "orbit_class": {
            "orbit_class_type": "APO",
            "orbit_class_description": "Near-Earth asteroid orbits which cross the Earth’s orbit similar to that of 1862 Apollo",
            "orbit_class_range": "a (semi-major axis) > 1.0 AU; q (perihelion) < 1.017 AU"
        }
    },
    "is_sentry_object": false
}